[{"OBJECT_NAME":"MONITOR-3 (RS58S)","OBJECT_ID":"2023-091Q","EPOCH":"2026-03-09T23:24:02.583360","MEAN_MOTION":15.25747617,"ECCENTRICITY":0.0013676,"INCLINATION":97.5199,"RA_OF_ASC_NODE":131.7909,"ARG_OF_PERICENTER":91.0881,"MEAN_ANOMALY":269.1924,"EPHEMERIS_TYPE":0,"CLASSIFICATION_TYPE":"U","NORAD_CAT_ID":57180,"ELEMENT_SET_NO":999,"REV_AT_EPOCH":14915,"BSTAR":0.00054974842,"MEAN_MOTION_DOT":0.00014004,"MEAN_MOTION_DDOT":0},{"OBJECT_NAME":"STARLINK-35754","OBJECT_ID":"2025-294AA","EPOCH":"2026-03-09T23:24:33.251904","MEAN_MOTION":15.27592727,"ECCENTRICITY":0.00010505,"INCLINATION":43.0022,"RA_OF_ASC_NODE":36.3933,"ARG_OF_PERICENTER":251.6572,"MEAN_ANOMALY":108.4166,"EPHEMERIS_TYPE":0,"CLASSIFICATION_TYPE":"U","NORAD_CAT_ID":67054,"ELEMENT_SET_NO":999,"REV_AT_EPOCH":1484,"BSTAR":0.00084834963,"MEAN_MOTION_DOT":0.00023165,"MEAN_MOTION_DDOT":0}]
